NORAD_CAT_ID,OBJECT_NAME,OBJECT_TYPE,EPOCH,MEAN_MOTION,ECCENTRICITY,INCLINATION,RA_OF_ASC_NODE,ARG_OF_PERICENTER,MEAN_ANOMALY,BSTAR,MEAN_MOTION_DOT,MEAN_MOTION_DDOT,TLE_LINE0,TLE_LINE1,TLE_LINE2,SEMIMAJOR_AXIS,PERIOD,APOGEE,PERIGEE,DECAYED
52478.0,STARLINK-3825,PAYLOAD,2022-11-12 13:51:30,15.08847662,0.0001564999999999,53.2183,104.9972,55.6067,304.5073,0.00027576,4.104e-05,0.0,0 STARLINK-3825,1 52478U 22049AD  22316.57744023  .00004104  00000-0  27576-3 0  9998,2 52478  53.2183 104.9972 0001565  55.6067 304.5073 15.08847662 29277,6917.857,95.437,540.805,538.639,0.0
52478.0,STARLINK-3825,PAYLOAD,2022-11-12 17:02:17,15.08829098,0.0001424,53.2183,104.4025,40.9507,319.1592,-0.00010464,-1.952e-05,0.0,0 STARLINK-3825,1 52478U 22049AD  22316.70992627 -.00001952  00000-0 -10464-3 0  9996,2 52478  53.2183 104.4025 0001424  40.9507 319.1592 15.08829098 29294,6917.9140000000025,95.438,540.764,538.794,0.0
52478.0,STARLINK-3825,PAYLOAD,2022-11-13 02:34:35,15.08854013,0.0001409999999999,53.2183,102.6184,48.2237,311.8875,0.00028441,4.243e-05,0.0,0 STARLINK-3825,1 52478U 22049AD  22317.10735413  .00004243  00000-0  28441-3 0  9997,2 52478  53.2183 102.6184 0001410  48.2237 311.8875 15.08854013 29351,6917.8380000000025,95.437,540.678,538.727,0.0
52478.0,STARLINK-3825,PAYLOAD,2022-11-13 10:31:31,15.08834819,0.0001665,53.2198,101.1316,42.0533,318.0587,8.2271e-05,1.021e-05,0.0,0 STARLINK-3825,1 52478U 22049AD  22317.43856286  .00001021  00000-0  82271-4 0  9998,2 52478  53.2198 101.1316 0001665  42.0533 318.0587 15.08834819 29408,6917.896,95.438,540.913,538.609,0.0
52478.0,STARLINK-3825,PAYLOAD,2022-11-13 16:53:04,15.08835663,0.0001633,53.219,99.9414,47.8586,312.2545,-0.00010022,-1.882e-05,0.0,0 STARLINK-3825,1 52478U 22049AD  22317.70352133 -.00001882  00000-0 -10022-3 0  9991,2 52478  53.2190  99.9414 0001633  47.8586 312.2545 15.08835663 30522,6917.894,95.438,540.888,538.629,0.0
52478.0,STARLINK-3825,PAYLOAD,2022-11-14 10:22:18,15.08845658,0.000157,53.2183,96.6719,50.8189,309.2942,0.00025554,3.782e-05,0.0,0 STARLINK-3825,1 52478U 22049AD  22318.43215971  .00003782  00000-0  25554-3 0  9995,2 52478  53.2183  96.6719 0001570  50.8189 309.2942 15.08845658 30633,6917.863,95.437,540.814,538.6419999999998,0.0
52478.0,STARLINK-3825,PAYLOAD,2022-11-14 18:19:14,15.08845598,0.0001771,53.2184,95.1864,46.5252,313.5887,0.00054309,8.367e-05,0.0,0 STARLINK-3825,1 52478U 22049AD  22318.76336151  .00008367  00000-0  54309-3 0  9999,2 52478  53.2184  95.1864 0001771  46.5252 313.5887 15.08845598 30689,6917.863,95.437,540.953,538.503,0.0
52478.0,STARLINK-3825,PAYLOAD,2022-11-15 05:26:56,15.08836582,0.0001457,53.2187,93.1047,64.7407,295.3736,0.00017551,2.506e-05,0.0,0 STARLINK-3825,1 52478U 22049AD  22319.22704371  .00002506  00000-0  17551-3 0  9991,2 52478  53.2187  93.1047 0001457  64.7407 295.3736 15.08836582 29678,6917.891,95.438,540.764,538.748,0.0
52478.0,STARLINK-3825,PAYLOAD,2022-11-15 13:23:52,15.08841935,0.0001659,53.2182,91.6168,58.3429,301.7725,0.00024264,3.576e-05,0.0,0 STARLINK-3825,1 52478U 22049AD  22319.55824350  .00003576  00000-0  24264-3 0  9994,2 52478  53.2182  91.6168 0001659  58.3429 301.7725 15.08841935 30802,6917.874,95.437,540.887,538.592,0.0
52478.0,STARLINK-3825,PAYLOAD,2022-11-15 16:34:38,15.08843233,0.0001591,53.2182,91.0222,60.6582,299.4569,0.00028059,4.181e-05,0.0,0 STARLINK-3825,1 52478U 22049AD  22319.69072311  .00004181  00000-0  28059-3 0  9990,2 52478  53.2182  91.0222 0001591  60.6582 299.4569 15.08843233 30822,6917.871,95.437,540.836,538.635,0.0
52478.0,STARLINK-3825,PAYLOAD,2022-11-16 11:39:16,15.08833159,0.0001671,53.2184,87.4534,56.3358,303.7793,2.6177e-05,1.29e-06,0.0,0 STARLINK-3825,1 52478U 22049AD  22320.48561043  .00000129  00000-0  26177-4 0  9992,2 52478  53.2184  87.4534 0001671  56.3358 303.7793 15.08833159 29867,6917.901,95.438,540.922,538.61,0.0
52478.0,STARLINK-3825,PAYLOAD,2022-11-16 14:50:03,15.08832175,0.000156,53.2184,86.8584,60.3217,299.793,2.1711e-05,5.7e-07,0.0,0 STARLINK-3825,1 52478U 22049AD  22320.61809123  .00000057  00000-0  21711-4 0  9990,2 52478  53.2184  86.8584 0001560  60.3217 299.7930 15.08832175 30968,6917.904,95.438,540.849,538.69,0.0
52478.0,STARLINK-3825,PAYLOAD,2022-11-17 14:40:50,15.08845477,0.0001751999999999,53.2183,82.3991,53.6925,306.4228,0.00032369,4.868e-05,0.0,0 STARLINK-3825,1 52478U 22049AD  22321.61169151  .00004868  00000-0  32369-3 0  9995,2 52478  53.2183  82.3991 0001752  53.6925 306.4228 15.08845477 31117,6917.864000000001,95.437,540.941,538.5169999999998,0.0
52478.0,STARLINK-3825,PAYLOAD,2022-11-18 09:45:27,15.08846719,0.0001761,53.2186,78.8312,52.3044,307.8107,0.00035377,5.348e-05,0.0,0 STARLINK-3825,1 52478U 22049AD  22322.40657314  .00005348  00000-0  35377-3 0  9992,2 52478  53.2186  78.8312 0001761  52.3044 307.8107 15.08846719 30159,6917.86,95.437,540.943,538.507,0.0
52478.0,STARLINK-3825,PAYLOAD,2022-11-18 14:31:37,15.08852449,0.0001796,53.2186,77.9391,51.2896,308.8257,0.00044992,6.882e-05,0.0,0 STARLINK-3825,1 52478U 22049AD  22322.60529163  .00006882  00000-0  44992-3 0  9991,2 52478  53.2186  77.9391 0001796  51.2896 308.8257 15.08852449 31264,6917.842,95.437,540.95,538.465,0.0
52478.0,STARLINK-3825,PAYLOAD,2022-11-19 09:36:14,15.08852794,0.0001788,53.2188,74.3708,53.1055,307.0101,0.00034071,5.14e-05,0.0,0 STARLINK-3825,1 52478U 22049AD  22323.40016919  .00005140  00000-0  34071-3 0  9993,2 52478  53.2188  74.3708 0001788  53.1055 307.0101 15.08852794 31383,6917.840999999999,95.437,540.943,538.469,0.0
52478.0,STARLINK-3825,PAYLOAD,2022-11-19 11:11:37,15.08852071,0.0001914,53.2186,74.0728,49.6639,310.452,0.00030373,4.551e-05,0.0,0 STARLINK-3825,1 52478U 22049AD  22323.46640951  .00004551  00000-0  30373-3 0  9994,2 52478  53.2186  74.0728 0001914  49.6639 310.4520 15.08852071 30312,6917.843000000003,95.437,541.033,538.384,0.0
52478.0,STARLINK-3825,PAYLOAD,2022-11-20 03:05:29,15.08846156,0.0001691,53.2191,71.0985,55.8798,304.2354,0.00010566,1.394e-05,0.0,0 STARLINK-3825,1 52478U 22049AD  22324.12880875  .00001394  00000-0  10566-3 0  9993,2 52478  53.2191  71.0985 0001691  55.8798 304.2354 15.08846156 30411,6917.861999999999,95.437,540.896,538.557,0.0
52478.0,STARLINK-3825,PAYLOAD,2022-11-20 12:37:48,15.08835842,0.0001706,53.219,69.3157,50.5957,309.5186,-5.9293e-05,-1.231e-05,0.0,0 STARLINK-3825,1 52478U 22049AD  22324.52625433 -.00001231  00000-0 -59293-4 0  9997,2 52478  53.2190  69.3157 0001706  50.5957 309.5186 15.08835842 30474,6917.893,95.438,540.938,538.578,0.0
52478.0,STARLINK-3825,PAYLOAD,2022-11-20 14:13:11,15.08837481,0.0001738,53.2191,69.0189,48.9719,311.1423,-3.7161e-05,-8.79e-06,0.0,0 STARLINK-3825,1 52478U 22049AD  22324.59249359 -.00000879  00000-0 -37161-4 0  9990,2 52478  53.2191  69.0189 0001738  48.9719 311.1423 15.08837481 31564,6917.888000000001,95.438,540.955,538.5509999999998,0.0
52478.0,STARLINK-3825,PAYLOAD,2022-11-21 04:31:39,15.08844521,0.0001692,53.22,66.3425,48.8571,311.2567,0.00012281,1.667e-05,0.0,0 STARLINK-3825,1 52478U 22049AD  22325.18865088  .00001667  00000-0  12281-3 0  9998,2 52478  53.2200  66.3425 0001692  48.8571 311.2567 15.08844521 30575,6917.8669999999975,95.437,540.9019999999998,538.561,0.0
52478.0,STARLINK-3825,PAYLOAD,2022-11-21 10:53:11,15.08850405,0.0001729,53.2194,65.1532,48.0716,312.0424,0.00016285,2.305e-05,0.0,0 STARLINK-3825,1 52478U 22049AD  22325.45360655  .00002305  00000-0  16285-3 0  9996,2 52478  53.2194  65.1532 0001729  48.0716 312.0424 15.08850405 31690,6917.849,95.437,540.91,538.5169999999998,0.0
52478.0,STARLINK-3825,PAYLOAD,2022-11-21 15:39:21,15.08847335,0.0001737,53.2195,64.2613,48.0997,312.0143,0.00011598,1.559e-05,0.0,0 STARLINK-3825,1 52478U 22049AD  22325.65232804  .00001559  00000-0  11598-3 0  9994,2 52478  53.2195  64.2613 0001737  48.0997 312.0143 15.08847335 31721,6917.858,95.437,540.925,538.521,0.0
52478.0,STARLINK-3825,PAYLOAD,2022-11-22 13:54:45,15.08837264,0.0001747,53.2197,60.0984,46.6027,313.5111,9.2541e-05,1.185e-05,0.0,0 STARLINK-3825,1 52478U 22049AD  22326.57969303  .00001185  00000-0  92541-4 0  9990,2 52478  53.2197  60.0984 0001747  46.6027 313.5111 15.08837264 30783,6917.889,95.438,540.962,538.545,0.0
52478.0,STARLINK-3825,PAYLOAD,2022-11-23 10:34:46,15.08835837,0.0001655,53.2203,56.2332,45.4943,314.6184,-4.6326e-06,-3.62e-06,0.0,0 STARLINK-3825,1 52478U 22049AD  22327.44081866 -.00000362  00000-0 -46326-5 0  9995,2 52478  53.2203  56.2332 0001655  45.4943 314.6184 15.08835837 31997,6917.893,95.438,540.903,538.613,0.0
52478.0,STARLINK-3825,PAYLOAD,2022-11-24 05:39:23,15.08844716,0.0001807,53.2204,52.6652,45.5456,314.5684,0.00011182,1.492e-05,0.0,0 STARLINK-3825,1 52478U 22049AD  22328.23569108  .00001492  00000-0  11182-3 0  9996,2 52478  53.2204  52.6652 0001807  45.5456 314.5684 15.08844716 31037,6917.866,95.437,540.981,538.481,0.0
52478.0,STARLINK-3825,PAYLOAD,2022-11-24 10:25:34,15.08833191,0.0001776,53.2206,51.774,44.335,315.7784,2.537300000000001e-05,1.16e-06,0.0,0 STARLINK-3825,1 52478U 22049AD  22328.43442139  .00000116  00000-0  25373-4 0  9992,2 52478  53.2206  51.7740 0001776  44.3350 315.7784 15.08833191 32144,6917.901,95.438,540.995,538.538,0.0
52478.0,STARLINK-3825,PAYLOAD,2022-11-24 12:00:57,15.08832905,0.0001688,53.2204,51.4758,47.7385,312.375,4.4991e-05,4.28e-06,0.0,0 STARLINK-3825,1 52478U 22049AD  22328.50066077  .00000428  00000-0  44991-4 0  9996,2 52478  53.2204  51.4758 0001688  47.7385 312.3750 15.08832905 31074,6917.901999999999,95.438,540.935,538.599,0.0
52478.0,STARLINK-3825,PAYLOAD,2022-11-25 00:44:01,15.08840192,0.0001854,53.2207,49.0977,43.9185,316.1954,6.8619e-05,8.04e-06,0.0,0 STARLINK-3825,1 52478U 22049AD  22329.03057724  .00000804  00000-0  68619-4 0  9995,2 52478  53.2207  49.0977 0001854  43.9185 316.1954 15.08840192 31158,6917.88,95.438,541.0269999999998,538.462,0.0
